{
  "type": "FeatureCollection",
  "features": [
    {
      "type": "Feature",
      "geometry": {
        "type": "Polygon",
        "coordinates": [
          [
            [
              94.127179370726,
              26.95319597297297
            ],
            [
              94.187660629274,
              26.95319597297297
            ],
            [
              94.187660629274,
              27.007250027027027
            ],
            [
              94.127179370726,
              27.007250027027027
            ],
            [
              94.127179370726,
              26.95319597297297
            ]
          ]
        ]
      },
      "properties": {
        "label": "Majuli - Assam, India"
      }
    },
    {
      "type": "Feature",
      "geometry": {
        "type": "Polygon",
        "coordinates": [
          [
            [
              94.52928525826982,
              27.445956972972972
            ],
            [
              94.59003474173016,
              27.445956972972972
            ],
            [
              94.59003474173016,
              27.50001102702703
            ],
            [
              94.52928525826982,
              27.50001102702703
            ],
            [
              94.52928525826982,
              27.445956972972972
            ]
          ]
        ]
      },
      "properties": {
        "label": "Dhemaji - Assam, India"
      }
    },
    {
      "type": "Feature",
      "geometry": {
        "type": "Polygon",
        "coordinates": [
          [
            [
              90.97573132627888,
              26.30229997297297
            ],
            [
              91.03586867372111,
              26.30229997297297
            ],
            [
              91.03586867372111,
              26.356354027027027
            ],
            [
              90.97573132627888,
              26.356354027027027
            ],
            [
              90.97573132627888,
              26.30229997297297
            ]
          ]
        ]
      },
      "properties": {
        "label": "Barpeta - Assam, India"
      }
    },
    {
      "type": "Feature",
      "geometry": {
        "type": "Polygon",
        "coordinates": [
          [
            [
              83.12249779875559,
              20.263074972972973
            ],
            [
              83.17996220124441,
              20.263074972972973
            ],
            [
              83.17996220124441,
              20.31712902702703
            ],
            [
              83.12249779875559,
              20.31712902702703
            ],
            [
              83.12249779875559,
              20.263074972972973
            ]
          ]
        ]
      },
      "properties": {
        "label": "Titlagarh - Odisha, India"
      }
    },
    {
      "type": "Feature",
      "geometry": {
        "type": "Polygon",
        "coordinates": [
          [
            [
              83.88109813322698,
              20.818292972972973
            ],
            [
              83.93877186677302,
              20.818292972972973
            ],
            [
              83.93877186677302,
              20.87234702702703
            ],
            [
              83.88109813322698,
              20.87234702702703
            ],
            [
              83.88109813322698,
              20.818292972972973
            ]
          ]
        ]
      },
      "properties": {
        "label": "Sonepur - Odisha, India"
      }
    },
    {
      "type": "Feature",
      "geometry": {
        "type": "Polygon",
        "coordinates": [
          [
            [
              83.99523175413579,
              21.83804297297297
            ],
            [
              84.05330824586422,
              21.83804297297297
            ],
            [
              84.05330824586422,
              21.892097027027027
            ],
            [
              83.99523175413579,
              21.892097027027027
            ],
            [
              83.99523175413579,
              21.83804297297297
            ]
          ]
        ]
      },
      "properties": {
        "label": "Jharsuguda - Odisha, India"
      }
    },
    {
      "type": "Feature",
      "geometry": {
        "type": "Polygon",
        "coordinates": [
          [
            [
              76.53450922746559,
              18.369626972972974
            ],
            [
              76.59131077253441,
              18.369626972972974
            ],
            [
              76.59131077253441,
              18.42368102702703
            ],
            [
              76.53450922746559,
              18.42368102702703
            ],
            [
              76.53450922746559,
              18.369626972972974
            ]
          ]
        ]
      },
      "properties": {
        "label": "Latur - Maharashtra, India"
      }
    },
    {
      "type": "Feature",
      "geometry": {
        "type": "Polygon",
        "coordinates": [
          [
            [
              76.0136838115608,
              18.15842297297297
            ],
            [
              76.07041618843921,
              18.15842297297297
            ],
            [
              76.07041618843921,
              18.212477027027028
            ],
            [
              76.0136838115608,
              18.212477027027028
            ],
            [
              76.0136838115608,
              18.15842297297297
            ]
          ]
        ]
      },
      "properties": {
        "label": "Osmanabad Taluka - Maharashtra, India"
      }
    },
    {
      "type": "Feature",
      "geometry": {
        "type": "Polygon",
        "coordinates": [
          [
            [
              75.72725960479939,
              18.96258297297297
            ],
            [
              75.7842603952006,
              18.96258297297297
            ],
            [
              75.7842603952006,
              19.016637027027027
            ],
            [
              75.72725960479939,
              19.016637027027027
            ],
            [
              75.72725960479939,
              18.96258297297297
            ]
          ]
        ]
      },
      "properties": {
        "label": "Beed - Maharashtra, India"
      }
    }
  ]
}