{
"type": "FeatureCollection",
"name": "target_districts",
"crs": { "type": "name", "properties": { "name": "urn:ogc:def:crs:OGC:1.3:CRS84" } },
"features": [
{ "type": "Feature", "properties": { "GID_2": "IND.5.5_1", "GID_0": "IND", "COUNTRY": "India", "GID_1": "IND.5_1", "NAME_1": "Bihar", "NL_NAME_1": "NA", "NAME_2": "Begusarai", "VARNAME_2": "NA", "NL_NAME_2": "NA", "TYPE_2": "District", "ENGTYPE_2": "District", "CC_2": "NA", "HASC_2": "IN.BR.BE" }, "geometry": { "type": "MultiPolygon", "coordinates": [ [ [ [ 86.3072, 25.3169 ], [ 86.2918, 25.2973 ], [ 86.2695, 25.29 ], [ 86.2594, 25.2851 ], [ 86.2632, 25.2794 ], [ 86.2428, 25.2711 ], [ 86.2263, 25.2577 ], [ 86.211, 25.253 ], [ 86.1928, 25.2499 ], [ 86.1891, 25.2514 ], [ 86.192, 25.2576 ], [ 86.1814, 25.2597 ], [ 86.1635, 25.272 ], [ 86.1638, 25.2591 ], [ 86.1574, 25.264 ], [ 86.1489, 25.2646 ], [ 86.1463, 25.2589 ], [ 86.1458, 25.2673 ], [ 86.137, 25.2693 ], [ 86.1232, 25.2694 ], [ 86.1223, 25.2724 ], [ 86.1266, 25.2728 ], [ 86.1268, 25.2745 ], [ 86.1201, 25.2871 ], [ 86.1042, 25.3008 ], [ 86.0955, 25.3118 ], [ 86.0906, 25.3055 ], [ 86.0797, 25.3072 ], [ 86.0719, 25.3101 ], [ 86.0739, 25.3149 ], [ 86.0628, 25.3199 ], [ 86.0573, 25.3343 ], [ 86.0602, 25.3366 ], [ 86.0602, 25.3549 ], [ 86.0563, 25.3565 ], [ 86.0511, 25.3665 ], [ 86.0475, 25.3751 ], [ 86.0447, 25.3911 ], [ 86.0321, 25.3884 ], [ 86.0302, 25.3751 ], [ 86.0287, 25.3745 ], [ 86.0279, 25.3604 ], [ 86.0119, 25.3584 ], [ 86.0046, 25.3669 ], [ 86.0089, 25.3689 ], [ 86.0052, 25.3735 ], [ 85.9839, 25.3897 ], [ 85.9599, 25.4045 ], [ 85.9507, 25.4086 ], [ 85.9485, 25.4117 ], [ 85.9486, 25.4155 ], [ 85.9443, 25.4153 ], [ 85.9422, 25.4105 ], [ 85.9297, 25.4119 ], [ 85.9084, 25.4224 ], [ 85.8983, 25.4331 ], [ 85.8923, 25.424 ], [ 85.8908, 25.4235 ], [ 85.8852, 25.4274 ], [ 85.882, 25.425 ], [ 85.8824, 25.4232 ], [ 85.8803, 25.4234 ], [ 85.8654, 25.4418 ], [ 85.87, 25.4551 ], [ 85.8688, 25.4691 ], [ 85.8731, 25.4761 ], [ 85.8874, 25.4612 ], [ 85.8971, 25.4623 ], [ 85.8951, 25.4685 ], [ 85.8872, 25.4746 ], [ 85.8787, 25.5024 ], [ 85.8312, 25.5189 ], [ 85.8281, 25.521 ], [ 85.8262, 25.5299 ], [ 85.7975, 25.5475 ], [ 85.7712, 25.5501 ], [ 85.7637, 25.5469 ], [ 85.7487, 25.5446 ], [ 85.7392, 25.539 ], [ 85.7284, 25.5272 ], [ 85.7317, 25.5415 ], [ 85.7371, 25.5422 ], [ 85.7382, 25.5593 ], [ 85.7398, 25.5615 ], [ 85.7467, 25.5637 ], [ 85.7558, 25.5696 ], [ 85.7609, 25.5744 ], [ 85.7642, 25.5786 ], [ 85.7652, 25.5874 ], [ 85.7679, 25.5888 ], [ 85.8017, 25.5794 ], [ 85.8358, 25.5768 ], [ 85.839, 25.587 ], [ 85.8419, 25.5905 ], [ 85.8402, 25.6052 ], [ 85.8376, 25.6087 ], [ 85.8203, 25.6184 ], [ 85.8226, 25.6232 ], [ 85.8296, 25.6271 ], [ 85.8327, 25.6377 ], [ 85.835, 25.6397 ], [ 85.833, 25.6429 ], [ 85.8351, 25.6457 ], [ 85.8438, 25.6458 ], [ 85.8478, 25.6424 ], [ 85.851, 25.6464 ], [ 85.8548, 25.6453 ], [ 85.8624, 25.6486 ], [ 85.8622, 25.6615 ], [ 85.8644, 25.6618 ], [ 85.8641, 25.6662 ], [ 85.8689, 25.6667 ], [ 85.8731, 25.6657 ], [ 85.8742, 25.6479 ], [ 85.8692, 25.6373 ], [ 85.8726, 25.6376 ], [ 85.8765, 25.6416 ], [ 85.8838, 25.6544 ], [ 85.8879, 25.6536 ], [ 85.8895, 25.6491 ], [ 85.8934, 25.6458 ], [ 85.8997, 25.6425 ], [ 85.9059, 25.6423 ], [ 85.9109, 25.6477 ], [ 85.9153, 25.6467 ], [ 85.927, 25.6494 ], [ 85.9284, 25.654 ], [ 85.9332, 25.652 ], [ 85.9386, 25.6532 ], [ 85.9439, 25.6451 ], [ 85.9495, 25.6434 ], [ 85.9563, 25.6333 ], [ 85.963, 25.6283 ], [ 85.9626, 25.6206 ], [ 86.007, 25.5911 ], [ 86.0124, 25.5917 ], [ 86.019, 25.6037 ], [ 86.0153, 25.6333 ], [ 86.022, 25.6394 ], [ 86.0224, 25.6429 ], [ 86.0217, 25.6473 ], [ 86.0105, 25.6491 ], [ 86.0224, 25.6619 ], [ 86.0174, 25.6659 ], [ 86.0134, 25.6652 ], [ 86.0078, 25.66 ], [ 86.0052, 25.6614 ], [ 86.0049, 25.6739 ], [ 86.0096, 25.6818 ], [ 86.0146, 25.6809 ], [ 86.0237, 25.6865 ], [ 86.0262, 25.6939 ], [ 86.0227, 25.7004 ], [ 86.0184, 25.7037 ], [ 86.0109, 25.7063 ], [ 86.0084, 25.709 ], [ 86.0072, 25.712 ], [ 86.0082, 25.7199 ], [ 86.0107, 25.7242 ], [ 86.0144, 25.7259 ], [ 86.0222, 25.717 ], [ 86.0265, 25.7182 ], [ 86.0281, 25.7205 ], [ 86.0254, 25.7312 ], [ 86.0287, 25.7304 ], [ 86.0335, 25.7224 ], [ 86.0382, 25.721 ], [ 86.0412, 25.7309 ], [ 86.046, 25.7346 ], [ 86.053, 25.729 ], [ 86.0544, 25.7251 ], [ 86.0652, 25.728 ], [ 86.0746, 25.7262 ], [ 86.0788, 25.7277 ], [ 86.0839, 25.7328 ], [ 86.0838, 25.735 ], [ 86.0723, 25.7373 ], [ 86.0713, 25.7427 ], [ 86.0737, 25.7446 ], [ 86.0793, 25.743 ], [ 86.0981, 25.7454 ], [ 86.1102, 25.7367 ], [ 86.1127, 25.737 ], [ 86.114, 25.741 ], [ 86.1207, 25.7352 ], [ 86.1295, 25.7364 ], [ 86.1333, 25.7434 ], [ 86.1328, 25.7462 ], [ 86.1363, 25.7511 ], [ 86.1332, 25.7553 ], [ 86.1248, 25.7519 ], [ 86.1112, 25.7582 ], [ 86.1049, 25.7574 ], [ 86.1018, 25.7587 ], [ 86.0982, 25.7739 ], [ 86.1062, 25.7768 ], [ 86.1248, 25.7727 ], [ 86.1269, 25.7697 ], [ 86.1335, 25.7677 ], [ 86.1255, 25.7622 ], [ 86.1263, 25.7595 ], [ 86.136, 25.7659 ], [ 86.1442, 25.7658 ], [ 86.1449, 25.7639 ], [ 86.1433, 25.7616 ], [ 86.1477, 25.7602 ], [ 86.1484, 25.7538 ], [ 86.1438, 25.7481 ], [ 86.1468, 25.7411 ], [ 86.1508, 25.7409 ], [ 86.1531, 25.7344 ], [ 86.1526, 25.73 ], [ 86.1421, 25.7276 ], [ 86.1413, 25.7113 ], [ 86.1436, 25.7103 ], [ 86.1512, 25.7143 ], [ 86.1604, 25.7152 ], [ 86.1612, 25.72 ], [ 86.1677, 25.7189 ], [ 86.1693, 25.7158 ], [ 86.1748, 25.7124 ], [ 86.1752, 25.7047 ], [ 86.1777, 25.6972 ], [ 86.1774, 25.6891 ], [ 86.1834, 25.6681 ], [ 86.1867, 25.663 ], [ 86.2012, 25.6581 ], [ 86.2394, 25.6528 ], [ 86.2467, 25.6468 ], [ 86.253, 25.6477 ], [ 86.2539, 25.6353 ], [ 86.2629, 25.6366 ], [ 86.2733, 25.6324 ], [ 86.2741, 25.6294 ], [ 86.2862, 25.6389 ], [ 86.2858, 25.64 ], [ 86.2881, 25.6384 ], [ 86.2888, 25.6318 ], [ 86.2799, 25.6196 ], [ 86.2829, 25.6125 ], [ 86.2819, 25.6089 ], [ 86.2745, 25.6044 ], [ 86.2737, 25.5973 ], [ 86.2811, 25.5842 ], [ 86.2851, 25.5847 ], [ 86.2849, 25.5817 ], [ 86.2934, 25.5751 ], [ 86.2929, 25.5741 ], [ 86.2796, 25.5795 ], [ 86.2768, 25.546 ], [ 86.278, 25.5433 ], [ 86.2848, 25.5458 ], [ 86.2865, 25.5437 ], [ 86.2865, 25.5375 ], [ 86.2916, 25.5382 ], [ 86.2888, 25.5269 ], [ 86.3138, 25.5244 ], [ 86.3178, 25.5181 ], [ 86.3196, 25.5105 ], [ 86.3215, 25.5119 ], [ 86.3226, 25.5179 ], [ 86.3266, 25.5186 ], [ 86.3286, 25.5138 ], [ 86.3269, 25.5041 ], [ 86.3284, 25.4991 ], [ 86.3219, 25.4948 ], [ 86.3244, 25.4913 ], [ 86.3312, 25.4877 ], [ 86.3353, 25.4878 ], [ 86.3368, 25.4897 ], [ 86.3356, 25.4981 ], [ 86.3369, 25.4994 ], [ 86.3597, 25.5002 ], [ 86.3466, 25.4851 ], [ 86.3425, 25.4857 ], [ 86.342, 25.4838 ], [ 86.345, 25.4834 ], [ 86.3434, 25.4796 ], [ 86.3442, 25.4774 ], [ 86.3496, 25.4746 ], [ 86.3584, 25.4825 ], [ 86.3584, 25.4904 ], [ 86.3634, 25.4935 ], [ 86.3675, 25.4917 ], [ 86.3698, 25.4878 ], [ 86.3619, 25.4841 ], [ 86.3615, 25.4797 ], [ 86.3648, 25.4781 ], [ 86.3757, 25.4824 ], [ 86.3777, 25.4806 ], [ 86.3794, 25.4813 ], [ 86.3803, 25.4836 ], [ 86.3782, 25.4906 ], [ 86.3843, 25.4941 ], [ 86.3945, 25.5056 ], [ 86.4029, 25.5054 ], [ 86.4086, 25.4977 ], [ 86.4166, 25.4981 ], [ 86.419, 25.5003 ], [ 86.4209, 25.4936 ], [ 86.4165, 25.4921 ], [ 86.4157, 25.4779 ], [ 86.4215, 25.4794 ], [ 86.4293, 25.4742 ], [ 86.4305, 25.4696 ], [ 86.4372, 25.4698 ], [ 86.4411, 25.4567 ], [ 86.444, 25.4525 ], [ 86.4573, 25.442 ], [ 86.4866, 25.4269 ], [ 86.495, 25.4244 ], [ 86.4985, 25.424 ], [ 86.4999, 25.4274 ], [ 86.5026, 25.4285 ], [ 86.5033, 25.4153 ], [ 86.5088, 25.4146 ], [ 86.5048, 25.4095 ], [ 86.4984, 25.4129 ], [ 86.4752, 25.4136 ], [ 86.4702, 25.399 ], [ 86.4563, 25.3904 ], [ 86.4509, 25.3929 ], [ 86.4543, 25.3962 ], [ 86.4508, 25.399 ], [ 86.4472, 25.3981 ], [ 86.4314, 25.4017 ], [ 86.4252, 25.3957 ], [ 86.4096, 25.3948 ], [ 86.4095, 25.3926 ], [ 86.4, 25.3864 ], [ 86.3967, 25.3881 ], [ 86.3973, 25.3731 ], [ 86.3842, 25.3637 ], [ 86.3819, 25.3681 ], [ 86.3825, 25.3808 ], [ 86.3584, 25.3602 ], [ 86.3634, 25.3569 ], [ 86.332, 25.3445 ], [ 86.3329, 25.3416 ], [ 86.3258, 25.3409 ], [ 86.3183, 25.3374 ], [ 86.3152, 25.3393 ], [ 86.3081, 25.3346 ], [ 86.3152, 25.323 ], [ 86.3072, 25.3169 ] ] ] ] } },
{ "type": "Feature", "properties": { "GID_2": "IND.5.10_1", "GID_0": "IND", "COUNTRY": "India", "GID_1": "IND.5_1", "NAME_1": "Bihar", "NL_NAME_1": "NA", "NAME_2": "Gaya", "VARNAME_2": "NA", "NL_NAME_2": "NA", "TYPE_2": "District", "ENGTYPE_2": "District", "CC_2": "NA", "HASC_2": "IN.BR.GA" }, "geometry": { "type": "MultiPolygon", "coordinates": [ [ [ [ 84.7315, 25.0579 ], [ 84.748, 25.0538 ], [ 84.756, 25.0559 ], [ 84.7633, 25.0543 ], [ 84.7758, 25.0651 ], [ 84.7886, 25.0665 ], [ 84.7928, 25.0629 ], [ 84.8053, 25.0736 ], [ 84.8193, 25.0685 ], [ 84.8218, 25.0658 ], [ 84.829, 25.066 ], [ 84.8591, 25.0614 ], [ 84.8798, 25.0678 ], [ 84.8874, 25.0596 ], [ 84.8987, 25.06 ], [ 84.8993, 25.046 ], [ 84.8898, 25.0428 ], [ 84.8795, 25.0368 ], [ 84.879, 25.0312 ], [ 84.8926, 25.0317 ], [ 84.8922, 25.0232 ], [ 84.9297, 24.9992 ], [ 84.9276, 24.9852 ], [ 84.9311, 24.9813 ], [ 84.9353, 24.9814 ], [ 84.9554, 24.9946 ], [ 84.9555, 25.0 ], [ 84.9577, 25.0049 ], [ 84.9708, 25.0029 ], [ 84.9747, 25.0069 ], [ 84.9829, 25.0084 ], [ 84.9709, 25.0172 ], [ 84.9769, 25.0203 ], [ 84.9874, 25.0191 ], [ 84.9931, 25.0165 ], [ 85.0058, 25.0209 ], [ 85.0158, 25.0224 ], [ 85.0256, 25.0183 ], [ 85.0296, 25.0217 ], [ 85.0305, 25.0274 ], [ 85.0327, 25.0287 ], [ 85.0328, 25.0328 ], [ 85.0448, 25.0355 ], [ 85.0498, 25.0349 ], [ 85.0511, 25.0179 ], [ 85.0535, 25.0081 ], [ 85.0562, 25.0046 ], [ 85.0638, 25.003 ], [ 85.0715, 25.0045 ], [ 85.076, 25.0004 ], [ 85.0875, 25.0015 ], [ 85.0883, 24.999 ], [ 85.0999, 25.0005 ], [ 85.1026, 25.0056 ], [ 85.117, 25.0204 ], [ 85.1231, 25.0291 ], [ 85.1292, 25.0496 ], [ 85.134, 25.0549 ], [ 85.1429, 25.057 ], [ 85.1536, 25.054 ], [ 85.1582, 25.0604 ], [ 85.1574, 25.0699 ], [ 85.1706, 25.0701 ], [ 85.1831, 25.074 ], [ 85.1874, 25.0718 ], [ 85.1795, 25.0614 ], [ 85.1823, 25.0545 ], [ 85.1973, 25.0537 ], [ 85.1948, 25.0342 ], [ 85.2034, 25.0349 ], [ 85.2143, 25.0439 ], [ 85.2158, 25.0467 ], [ 85.2157, 25.0553 ], [ 85.2219, 25.0571 ], [ 85.2281, 25.0554 ], [ 85.2378, 25.0313 ], [ 85.2373, 25.0249 ], [ 85.235, 25.0203 ], [ 85.2424, 25.0129 ], [ 85.2436, 25.0091 ], [ 85.2483, 25.0089 ], [ 85.2547, 25.012 ], [ 85.2564, 25.0234 ], [ 85.2559, 25.0332 ], [ 85.2595, 25.0349 ], [ 85.2623, 25.0343 ], [ 85.264, 25.0316 ], [ 85.265, 25.0258 ], [ 85.269, 25.0272 ], [ 85.2726, 25.0265 ], [ 85.2755, 25.031 ], [ 85.2964, 25.0272 ], [ 85.302, 25.0283 ], [ 85.3166, 25.0257 ], [ 85.319, 25.0248 ], [ 85.3225, 25.0179 ], [ 85.3219, 25.0107 ], [ 85.3345, 25.0072 ], [ 85.3353, 25.0108 ], [ 85.3427, 25.0125 ], [ 85.3446, 25.0189 ], [ 85.3491, 25.02 ], [ 85.3558, 25.0191 ], [ 85.3582, 25.0169 ], [ 85.3584, 25.0127 ], [ 85.3546, 25.0065 ], [ 85.3581, 24.9902 ], [ 85.3822, 24.9921 ], [ 85.3742, 24.9761 ], [ 85.3784, 24.9775 ], [ 85.3892, 24.9663 ], [ 85.3865, 24.9602 ], [ 85.3746, 24.9477 ], [ 85.3754, 24.9444 ], [ 85.3819, 24.9413 ], [ 85.3816, 24.9316 ], [ 85.3743, 24.9294 ], [ 85.3735, 24.9277 ], [ 85.3729, 24.9203 ], [ 85.3771, 24.9145 ], [ 85.3759, 24.8985 ], [ 85.3649, 24.8936 ], [ 85.3623, 24.8909 ], [ 85.3609, 24.8884 ], [ 85.3614, 24.8829 ], [ 85.3482, 24.8845 ], [ 85.3447, 24.8837 ], [ 85.339, 24.8875 ], [ 85.3305, 24.8829 ], [ 85.3291, 24.8783 ], [ 85.3375, 24.8669 ], [ 85.3353, 24.8624 ], [ 85.32, 24.8556 ], [ 85.3203, 24.8433 ], [ 85.3107, 24.8374 ], [ 85.3002, 24.8221 ], [ 85.3024, 24.8134 ], [ 85.3016, 24.8082 ], [ 85.2989, 24.8018 ], [ 85.2907, 24.7905 ], [ 85.2846, 24.7838 ], [ 85.2769, 24.787 ], [ 85.2734, 24.7851 ], [ 85.2699, 24.7751 ], [ 85.2683, 24.759 ], [ 85.263, 24.7505 ], [ 85.2639, 24.7483 ], [ 85.2688, 24.7467 ], [ 85.2903, 24.7497 ], [ 85.2903, 24.745 ], [ 85.2994, 24.7421 ], [ 85.2995, 24.7287 ], [ 85.3171, 24.7312 ], [ 85.3193, 24.721 ], [ 85.3255, 24.7124 ], [ 85.3255, 24.7015 ], [ 85.3241, 24.6975 ], [ 85.318, 24.6926 ], [ 85.3197, 24.6684 ], [ 85.3042, 24.6721 ], [ 85.3002, 24.6765 ], [ 85.2929, 24.6736 ], [ 85.2906, 24.6741 ], [ 85.2888, 24.6723 ], [ 85.2934, 24.6623 ], [ 85.3023, 24.6592 ], [ 85.3003, 24.6523 ], [ 85.3022, 24.6502 ], [ 85.3075, 24.649 ], [ 85.3188, 24.65 ], [ 85.3171, 24.6401 ], [ 85.3144, 24.6356 ], [ 85.2992, 24.647 ], [ 85.2967, 24.6334 ], [ 85.3064, 24.62 ], [ 85.3037, 24.6046 ], [ 85.3112, 24.6036 ], [ 85.3085, 24.5887 ], [ 85.3098, 24.5866 ], [ 85.3134, 24.5856 ], [ 85.3184, 24.5868 ], [ 85.3229, 24.5809 ], [ 85.3234, 24.5773 ], [ 85.319, 24.5706 ], [ 85.3108, 24.5686 ], [ 85.3113, 24.5621 ], [ 85.3434, 24.5521 ], [ 85.3598, 24.5561 ], [ 85.3651, 24.5553 ], [ 85.389, 24.5446 ], [ 85.3905, 24.5422 ], [ 85.3834, 24.5352 ], [ 85.3828, 24.5325 ], [ 85.3703, 24.5296 ], [ 85.3379, 24.528 ], [ 85.3186, 24.5246 ], [ 85.2973, 24.5286 ], [ 85.2825, 24.5267 ], [ 85.2794, 24.5191 ], [ 85.2819, 24.5092 ], [ 85.282, 24.4972 ], [ 85.2544, 24.4979 ], [ 85.2465, 24.4953 ], [ 85.2394, 24.4888 ], [ 85.2353, 24.4799 ], [ 85.2285, 24.4794 ], [ 85.2239, 24.4712 ], [ 85.2033, 24.4729 ], [ 85.1992, 24.4674 ], [ 85.1826, 24.4687 ], [ 85.1699, 24.4661 ], [ 85.1632, 24.4672 ], [ 85.1529, 24.4641 ], [ 85.1507, 24.4629 ], [ 85.1493, 24.4593 ], [ 85.1499, 24.4559 ], [ 85.1587, 24.4513 ], [ 85.1613, 24.4433 ], [ 85.1637, 24.4414 ], [ 85.1648, 24.4358 ], [ 85.1694, 24.4295 ], [ 85.1579, 24.4242 ], [ 85.1553, 24.418 ], [ 85.148, 24.4182 ], [ 85.1207, 24.4084 ], [ 85.1151, 24.409 ], [ 85.1093, 24.3988 ], [ 85.0987, 24.3939 ], [ 85.0959, 24.3908 ], [ 85.0925, 24.3815 ], [ 85.0894, 24.3792 ], [ 85.0807, 24.3808 ], [ 85.0655, 24.3868 ], [ 85.071, 24.3997 ], [ 85.0692, 24.4012 ], [ 85.0704, 24.4052 ], [ 85.0745, 24.4085 ], [ 85.0738, 24.413 ], [ 85.0757, 24.4218 ], [ 85.0762, 24.4399 ], [ 85.0691, 24.4357 ], [ 85.0646, 24.4306 ], [ 85.0604, 24.4246 ], [ 85.0575, 24.4165 ], [ 85.0533, 24.4151 ], [ 85.0422, 24.4183 ], [ 85.0395, 24.4241 ], [ 85.0357, 24.4231 ], [ 85.0321, 24.4254 ], [ 85.0207, 24.422 ], [ 85.0107, 24.4161 ], [ 84.9904, 24.4122 ], [ 84.9686, 24.3759 ], [ 84.9479, 24.3718 ], [ 84.935, 24.3765 ], [ 84.9253, 24.378 ], [ 84.9033, 24.3723 ], [ 84.898, 24.3721 ], [ 84.8944, 24.375 ], [ 84.9005, 24.3821 ], [ 84.8982, 24.3938 ], [ 84.8919, 24.3985 ], [ 84.8823, 24.4171 ], [ 84.8779, 24.4226 ], [ 84.88, 24.432 ], [ 84.8781, 24.4438 ], [ 84.8802, 24.4628 ], [ 84.8763, 24.4628 ], [ 84.8727, 24.4658 ], [ 84.8674, 24.4669 ], [ 84.8629, 24.4576 ], [ 84.8597, 24.4566 ], [ 84.857, 24.4576 ], [ 84.8573, 24.4608 ], [ 84.8475, 24.4659 ], [ 84.842, 24.4555 ], [ 84.8344, 24.4525 ], [ 84.8306, 24.4592 ], [ 84.8327, 24.4612 ], [ 84.8335, 24.4696 ], [ 84.8272, 24.4701 ], [ 84.8279, 24.486 ], [ 84.8326, 24.5115 ], [ 84.8195, 24.5248 ], [ 84.8016, 24.5211 ], [ 84.7953, 24.5295 ], [ 84.7897, 24.5215 ], [ 84.7837, 24.5177 ], [ 84.7799, 24.5049 ], [ 84.742, 24.4965 ], [ 84.7401, 24.4883 ], [ 84.7249, 24.4729 ], [ 84.7175, 24.4688 ], [ 84.7129, 24.4686 ], [ 84.7065, 24.4724 ], [ 84.6941, 24.4618 ], [ 84.6789, 24.4563 ], [ 84.674, 24.4411 ], [ 84.6662, 24.4312 ], [ 84.6658, 24.4284 ], [ 84.6684, 24.4263 ], [ 84.6678, 24.413 ], [ 84.6629, 24.4106 ], [ 84.6601, 24.396 ], [ 84.6583, 24.3937 ], [ 84.6431, 24.3986 ], [ 84.6289, 24.4002 ], [ 84.6229, 24.4039 ], [ 84.6193, 24.4021 ], [ 84.6152, 24.4038 ], [ 84.6125, 24.4012 ], [ 84.601, 24.401 ], [ 84.5899, 24.4044 ], [ 84.5818, 24.4015 ], [ 84.5801, 24.4104 ], [ 84.5725, 24.4123 ], [ 84.5654, 24.4075 ], [ 84.5591, 24.3971 ], [ 84.5643, 24.3899 ], [ 84.5658, 24.3839 ], [ 84.5459, 24.3737 ], [ 84.5417, 24.3767 ], [ 84.5215, 24.3763 ], [ 84.5241, 24.3688 ], [ 84.528, 24.3648 ], [ 84.5267, 24.361 ], [ 84.5188, 24.3532 ], [ 84.5194, 24.3458 ], [ 84.5255, 24.3395 ], [ 84.5174, 24.3337 ], [ 84.5107, 24.3172 ], [ 84.5032, 24.3154 ], [ 84.5045, 24.3059 ], [ 84.5012, 24.2988 ], [ 84.5023, 24.2945 ], [ 84.4969, 24.2927 ], [ 84.4935, 24.287 ], [ 84.4842, 24.2969 ], [ 84.4875, 24.2988 ], [ 84.4887, 24.3022 ], [ 84.4871, 24.3048 ], [ 84.4753, 24.3026 ], [ 84.4684, 24.3053 ], [ 84.4651, 24.3084 ], [ 84.4545, 24.3386 ], [ 84.4467, 24.3397 ], [ 84.4449, 24.3342 ], [ 84.4174, 24.3314 ], [ 84.4182, 24.3424 ], [ 84.4225, 24.3591 ], [ 84.3949, 24.3678 ], [ 84.3998, 24.3746 ], [ 84.3977, 24.3774 ], [ 84.392, 24.3757 ], [ 84.385, 24.3793 ], [ 84.3822, 24.3897 ], [ 84.3738, 24.391 ], [ 84.3673, 24.387 ], [ 84.3614, 24.3866 ], [ 84.3553, 24.391 ], [ 84.3359, 24.3958 ], [ 84.338, 24.4013 ], [ 84.3316, 24.4046 ], [ 84.3259, 24.4109 ], [ 84.3278, 24.4222 ], [ 84.3249, 24.4237 ], [ 84.3182, 24.4202 ], [ 84.3151, 24.4235 ], [ 84.3194, 24.4293 ], [ 84.3275, 24.4277 ], [ 84.3307, 24.4284 ], [ 84.3304, 24.4312 ], [ 84.315, 24.4475 ], [ 84.2932, 24.4508 ], [ 84.2853, 24.4659 ], [ 84.2942, 24.4808 ], [ 84.3082, 24.4869 ], [ 84.3217, 24.4898 ], [ 84.3394, 24.4968 ], [ 84.3413, 24.5002 ], [ 84.3634, 24.5106 ], [ 84.3686, 24.5168 ], [ 84.3658, 24.5279 ], [ 84.3805, 24.5311 ], [ 84.3778, 24.5431 ], [ 84.3864, 24.5459 ], [ 84.3857, 24.5526 ], [ 84.3878, 24.5575 ], [ 84.3856, 24.5612 ], [ 84.3875, 24.5677 ], [ 84.3934, 24.5682 ], [ 84.397, 24.5726 ], [ 84.4026, 24.5712 ], [ 84.3998, 24.5655 ], [ 84.4101, 24.5589 ], [ 84.4161, 24.5529 ], [ 84.4228, 24.5728 ], [ 84.4311, 24.5733 ], [ 84.4385, 24.5573 ], [ 84.4424, 24.5325 ], [ 84.461, 24.5378 ], [ 84.4821, 24.5144 ], [ 84.501, 24.5203 ], [ 84.5129, 24.5266 ], [ 84.5392, 24.5278 ], [ 84.5427, 24.5323 ], [ 84.5607, 24.5453 ], [ 84.5637, 24.5519 ], [ 84.5619, 24.5574 ], [ 84.5683, 24.5589 ], [ 84.5738, 24.5642 ], [ 84.5706, 24.5671 ], [ 84.5603, 24.5667 ], [ 84.5575, 24.5699 ], [ 84.5652, 24.5781 ], [ 84.5829, 24.5898 ], [ 84.5839, 24.5942 ], [ 84.5896, 24.5976 ], [ 84.5869, 24.6048 ], [ 84.5896, 24.6083 ], [ 84.5868, 24.616 ], [ 84.5966, 24.625 ], [ 84.593, 24.6266 ], [ 84.5922, 24.6309 ], [ 84.5928, 24.6437 ], [ 84.5963, 24.6568 ], [ 84.603, 24.6551 ], [ 84.6042, 24.6609 ], [ 84.6221, 24.6522 ], [ 84.629, 24.6534 ], [ 84.6317, 24.6646 ], [ 84.6374, 24.6642 ], [ 84.6354, 24.6724 ], [ 84.6384, 24.6784 ], [ 84.6454, 24.6758 ], [ 84.6491, 24.6809 ], [ 84.6564, 24.68 ], [ 84.6555, 24.6832 ], [ 84.6821, 24.6785 ], [ 84.6913, 24.6813 ], [ 84.6906, 24.6911 ], [ 84.6954, 24.6987 ], [ 84.7019, 24.6978 ], [ 84.7091, 24.701 ], [ 84.7153, 24.7012 ], [ 84.7197, 24.73 ], [ 84.7191, 24.7531 ], [ 84.7115, 24.758 ], [ 84.7093, 24.7665 ], [ 84.726, 24.7674 ], [ 84.7268, 24.777 ], [ 84.7235, 24.7783 ], [ 84.723, 24.7819 ], [ 84.718, 24.7836 ], [ 84.7184, 24.7894 ], [ 84.7275, 24.7906 ], [ 84.7256, 24.7957 ], [ 84.6959, 24.8021 ], [ 84.695, 24.8128 ], [ 84.6899, 24.818 ], [ 84.6903, 24.8275 ], [ 84.6867, 24.8327 ], [ 84.6815, 24.8353 ], [ 84.6763, 24.8319 ], [ 84.6674, 24.8344 ], [ 84.6677, 24.8419 ], [ 84.6648, 24.8507 ], [ 84.6589, 24.8514 ], [ 84.6449, 24.8566 ], [ 84.6406, 24.8636 ], [ 84.6344, 24.8674 ], [ 84.6353, 24.8758 ], [ 84.6328, 24.8782 ], [ 84.6384, 24.8831 ], [ 84.653, 24.8793 ], [ 84.6578, 24.8726 ], [ 84.6637, 24.8766 ], [ 84.6635, 24.883 ], [ 84.6541, 24.8865 ], [ 84.6572, 24.8908 ], [ 84.6647, 24.8942 ], [ 84.6662, 24.8918 ], [ 84.6705, 24.8922 ], [ 84.6741, 24.8946 ], [ 84.6747, 24.9035 ], [ 84.6799, 24.9021 ], [ 84.6818, 24.9053 ], [ 84.6907, 24.9037 ], [ 84.6975, 24.9046 ], [ 84.7021, 24.9191 ], [ 84.7091, 24.9202 ], [ 84.7111, 24.9351 ], [ 84.7058, 24.9422 ], [ 84.7073, 24.9504 ], [ 84.7033, 24.9535 ], [ 84.7042, 24.9577 ], [ 84.7165, 24.9577 ], [ 84.7182, 24.9596 ], [ 84.7299, 24.9599 ], [ 84.7306, 24.9673 ], [ 84.7223, 24.9737 ], [ 84.7227, 24.9809 ], [ 84.7278, 24.9868 ], [ 84.7378, 24.9874 ], [ 84.7374, 24.9959 ], [ 84.739, 25.0005 ], [ 84.7467, 25.0046 ], [ 84.746, 25.015 ], [ 84.7338, 25.0173 ], [ 84.7282, 25.0139 ], [ 84.7195, 25.0142 ], [ 84.7162, 25.0182 ], [ 84.7153, 25.0258 ], [ 84.7016, 25.0333 ], [ 84.6963, 25.0386 ], [ 84.6974, 25.0469 ], [ 84.7272, 25.0462 ], [ 84.7315, 25.0579 ] ] ] ] } },
{ "type": "Feature", "properties": { "GID_2": "IND.5.15_1", "GID_0": "IND", "COUNTRY": "India", "GID_1": "IND.5_1", "NAME_1": "Bihar", "NL_NAME_1": "NA", "NAME_2": "Katihar", "VARNAME_2": "Kathihar", "NL_NAME_2": "NA", "TYPE_2": "District", "ENGTYPE_2": "District", "CC_2": "NA", "HASC_2": "IN.BR.KT" }, "geometry": { "type": "MultiPolygon", "coordinates": [ [ [ [ 87.5474, 25.3309 ], [ 87.5376, 25.3301 ], [ 87.5232, 25.3414 ], [ 87.5261, 25.3512 ], [ 87.5247, 25.3552 ], [ 87.5221, 25.3472 ], [ 87.511, 25.3513 ], [ 87.4982, 25.3495 ], [ 87.4834, 25.3665 ], [ 87.456, 25.3645 ], [ 87.4506, 25.359 ], [ 87.4404, 25.3614 ], [ 87.4359, 25.3647 ], [ 87.4302, 25.3801 ], [ 87.4262, 25.3735 ], [ 87.4238, 25.3755 ], [ 87.4211, 25.375 ], [ 87.4043, 25.3798 ], [ 87.4023, 25.3843 ], [ 87.4041, 25.3898 ], [ 87.3611, 25.4081 ], [ 87.3623, 25.4227 ], [ 87.3512, 25.4148 ], [ 87.3411, 25.4137 ], [ 87.334, 25.4151 ], [ 87.3217, 25.408 ], [ 87.3135, 25.4074 ], [ 87.3018, 25.4017 ], [ 87.2999, 25.4023 ], [ 87.2894, 25.3983 ], [ 87.2742, 25.3623 ], [ 87.2608, 25.3511 ], [ 87.2598, 25.3536 ], [ 87.2713, 25.3694 ], [ 87.2417, 25.3786 ], [ 87.2319, 25.3751 ], [ 87.2231, 25.3829 ], [ 87.2229, 25.3852 ], [ 87.2158, 25.3899 ], [ 87.2135, 25.3967 ], [ 87.217, 25.4001 ], [ 87.2149, 25.4074 ], [ 87.1988, 25.4149 ], [ 87.2035, 25.4274 ], [ 87.2153, 25.4309 ], [ 87.2243, 25.4433 ], [ 87.2253, 25.4513 ], [ 87.2287, 25.4606 ], [ 87.2256, 25.4699 ], [ 87.2227, 25.4734 ], [ 87.208, 25.4811 ], [ 87.2063, 25.4837 ], [ 87.2085, 25.4995 ], [ 87.2039, 25.5007 ], [ 87.2023, 25.5044 ], [ 87.2029, 25.5061 ], [ 87.2171, 25.5075 ], [ 87.2194, 25.5194 ], [ 87.2231, 25.5237 ], [ 87.223, 25.5303 ], [ 87.2203, 25.5343 ], [ 87.2227, 25.5366 ], [ 87.2388, 25.5398 ], [ 87.2416, 25.5469 ], [ 87.2511, 25.5492 ], [ 87.2538, 25.5552 ], [ 87.2618, 25.5577 ], [ 87.2647, 25.5651 ], [ 87.2571, 25.5678 ], [ 87.2606, 25.5706 ], [ 87.2547, 25.5781 ], [ 87.2575, 25.5881 ], [ 87.2537, 25.5911 ], [ 87.2527, 25.5969 ], [ 87.2479, 25.5977 ], [ 87.2517, 25.6204 ], [ 87.2461, 25.6205 ], [ 87.2462, 25.6251 ], [ 87.2506, 25.635 ], [ 87.256, 25.6388 ], [ 87.272, 25.6432 ], [ 87.2655, 25.6488 ], [ 87.2572, 25.6529 ], [ 87.252, 25.6668 ], [ 87.2555, 25.669 ], [ 87.2406, 25.6883 ], [ 87.2372, 25.6963 ], [ 87.2399, 25.7037 ], [ 87.2457, 25.7083 ], [ 87.2488, 25.7083 ], [ 87.2549, 25.7169 ], [ 87.2713, 25.7137 ], [ 87.2692, 25.7107 ], [ 87.2705, 25.7045 ], [ 87.2735, 25.7013 ], [ 87.2889, 25.7011 ], [ 87.2945, 25.6994 ], [ 87.2976, 25.6965 ], [ 87.2986, 25.6922 ], [ 87.3084, 25.693 ], [ 87.3108, 25.689 ], [ 87.3184, 25.6865 ], [ 87.3279, 25.6863 ], [ 87.3314, 25.6846 ], [ 87.3333, 25.6816 ], [ 87.3469, 25.6824 ], [ 87.3516, 25.6864 ], [ 87.3555, 25.6867 ], [ 87.3605, 25.6857 ], [ 87.37, 25.68 ], [ 87.3764, 25.6828 ], [ 87.383, 25.6809 ], [ 87.3866, 25.6821 ], [ 87.3966, 25.6774 ], [ 87.4077, 25.6783 ], [ 87.409, 25.6746 ], [ 87.4255, 25.6763 ], [ 87.4293, 25.6806 ], [ 87.4502, 25.6799 ], [ 87.4771, 25.6818 ], [ 87.4811, 25.6717 ], [ 87.4834, 25.6731 ], [ 87.4865, 25.6676 ], [ 87.5014, 25.6682 ], [ 87.5024, 25.6709 ], [ 87.5006, 25.6783 ], [ 87.5232, 25.6719 ], [ 87.5257, 25.6728 ], [ 87.5248, 25.6812 ], [ 87.5277, 25.6817 ], [ 87.5313, 25.6854 ], [ 87.5356, 25.6851 ], [ 87.5328, 25.6793 ], [ 87.5345, 25.6741 ], [ 87.5323, 25.6691 ], [ 87.5342, 25.6665 ], [ 87.5404, 25.6694 ], [ 87.5449, 25.6694 ], [ 87.5485, 25.6673 ], [ 87.5478, 25.6639 ], [ 87.5557, 25.6595 ], [ 87.5651, 25.6593 ], [ 87.5678, 25.6561 ], [ 87.5697, 25.6571 ], [ 87.5709, 25.6616 ], [ 87.5698, 25.6709 ], [ 87.5491, 25.6797 ], [ 87.5494, 25.681 ], [ 87.5557, 25.6828 ], [ 87.5498, 25.6844 ], [ 87.5563, 25.6856 ], [ 87.5649, 25.6815 ], [ 87.5681, 25.6822 ], [ 87.5692, 25.6853 ], [ 87.578, 25.6842 ], [ 87.5921, 25.6873 ], [ 87.5954, 25.6863 ], [ 87.5976, 25.6833 ], [ 87.6002, 25.6841 ], [ 87.6052, 25.6806 ], [ 87.6115, 25.6806 ], [ 87.6235, 25.6853 ], [ 87.633, 25.6915 ], [ 87.6358, 25.6898 ], [ 87.6361, 25.6861 ], [ 87.6441, 25.6803 ], [ 87.6485, 25.6837 ], [ 87.6585, 25.6849 ], [ 87.6628, 25.6884 ], [ 87.6679, 25.7005 ], [ 87.6769, 25.6972 ], [ 87.6789, 25.6982 ], [ 87.6758, 25.7165 ], [ 87.6793, 25.7191 ], [ 87.6774, 25.7232 ], [ 87.6807, 25.7301 ], [ 87.6813, 25.745 ], [ 87.686, 25.7479 ], [ 87.6965, 25.7449 ], [ 87.6979, 25.7473 ], [ 87.6941, 25.7507 ], [ 87.6973, 25.7552 ], [ 87.7035, 25.7529 ], [ 87.7061, 25.7622 ], [ 87.714, 25.7633 ], [ 87.7212, 25.7606 ], [ 87.7255, 25.7635 ], [ 87.7326, 25.7629 ], [ 87.7403, 25.7591 ], [ 87.7487, 25.7507 ], [ 87.7672, 25.7539 ], [ 87.7727, 25.7483 ], [ 87.7741, 25.7435 ], [ 87.7853, 25.7474 ], [ 87.7773, 25.7574 ], [ 87.7781, 25.7587 ], [ 87.7878, 25.7632 ], [ 87.7982, 25.7653 ], [ 87.8011, 25.7672 ], [ 87.7979, 25.7677 ], [ 87.8006, 25.7767 ], [ 87.8223, 25.7864 ], [ 87.8208, 25.7979 ], [ 87.8098, 25.8292 ], [ 87.789, 25.8424 ], [ 87.7934, 25.844 ], [ 87.7997, 25.8429 ], [ 87.8105, 25.8439 ], [ 87.8148, 25.8559 ], [ 87.8104, 25.8619 ], [ 87.8094, 25.8674 ], [ 87.7979, 25.8706 ], [ 87.796, 25.8725 ], [ 87.7956, 25.8754 ], [ 87.8021, 25.8815 ], [ 87.8199, 25.881 ], [ 87.8228, 25.8715 ], [ 87.8345, 25.8687 ], [ 87.8431, 25.8687 ], [ 87.8559, 25.8647 ], [ 87.8653, 25.8676 ], [ 87.8677, 25.8645 ], [ 87.8707, 25.866 ], [ 87.8722, 25.8597 ], [ 87.8812, 25.8584 ], [ 87.8848, 25.8647 ], [ 87.8995, 25.8598 ], [ 87.9048, 25.8531 ], [ 87.9109, 25.8517 ], [ 87.8973, 25.8396 ], [ 87.8974, 25.8345 ], [ 87.8953, 25.8332 ], [ 87.8926, 25.8351 ], [ 87.8876, 25.8329 ], [ 87.8834, 25.8286 ], [ 87.8843, 25.8273 ], [ 87.891, 25.8265 ], [ 87.8938, 25.8292 ], [ 87.8964, 25.8291 ], [ 87.898, 25.8277 ], [ 87.8939, 25.8251 ], [ 87.8987, 25.8201 ], [ 87.9045, 25.8189 ], [ 87.9105, 25.8148 ], [ 87.9095, 25.8107 ], [ 87.9076, 25.8094 ], [ 87.9031, 25.8141 ], [ 87.902, 25.811 ], [ 87.8967, 25.8111 ], [ 87.895, 25.8047 ], [ 87.8991, 25.8055 ], [ 87.9031, 25.8019 ], [ 87.898, 25.7993 ], [ 87.9009, 25.7803 ], [ 87.8977, 25.7718 ], [ 87.8985, 25.7698 ], [ 87.9013, 25.7692 ], [ 87.905, 25.772 ], [ 87.9187, 25.774 ], [ 87.9286, 25.7679 ], [ 87.9292, 25.7721 ], [ 87.9324, 25.7713 ], [ 87.9373, 25.7679 ], [ 87.9375, 25.7583 ], [ 87.9416, 25.756 ], [ 87.942, 25.7532 ], [ 87.9386, 25.7485 ], [ 87.9439, 25.7481 ], [ 87.9442, 25.7438 ], [ 87.9605, 25.7321 ], [ 87.962, 25.7297 ], [ 87.961, 25.7247 ], [ 87.9717, 25.7201 ], [ 87.9797, 25.7185 ], [ 87.9818, 25.7217 ], [ 87.9878, 25.7237 ], [ 87.9877, 25.72 ], [ 87.9926, 25.7191 ], [ 87.9972, 25.7119 ], [ 88.0068, 25.7065 ], [ 88.0167, 25.7047 ], [ 88.0175, 25.7025 ], [ 88.0143, 25.6975 ], [ 88.0162, 25.6917 ], [ 88.0224, 25.6915 ], [ 88.0268, 25.6989 ], [ 88.0302, 25.6988 ], [ 88.0348, 25.694 ], [ 88.0399, 25.6981 ], [ 88.0433, 25.6947 ], [ 88.0452, 25.69 ], [ 88.0486, 25.6906 ], [ 88.0508, 25.6858 ], [ 88.0431, 25.6739 ], [ 88.0454, 25.6598 ], [ 88.0489, 25.658 ], [ 88.0488, 25.6554 ], [ 88.044, 25.6526 ], [ 88.0485, 25.6439 ], [ 88.0473, 25.643 ], [ 88.0461, 25.6444 ], [ 88.0429, 25.639 ], [ 88.0402, 25.6419 ], [ 88.0358, 25.641 ], [ 88.0356, 25.6368 ], [ 88.0408, 25.6361 ], [ 88.0435, 25.6321 ], [ 88.0543, 25.6329 ], [ 88.0475, 25.6276 ], [ 88.0394, 25.6273 ], [ 88.0369, 25.622 ], [ 88.035, 25.6171 ], [ 88.0404, 25.6105 ], [ 88.0393, 25.6085 ], [ 88.0414, 25.6055 ], [ 88.0297, 25.6 ], [ 88.0357, 25.597 ], [ 88.0398, 25.5974 ], [ 88.0386, 25.595 ], [ 88.0312, 25.591 ], [ 88.0314, 25.5875 ], [ 88.0265, 25.5859 ], [ 88.021, 25.5869 ], [ 88.0219, 25.5829 ], [ 88.03, 25.5743 ], [ 88.0253, 25.5691 ], [ 88.0282, 25.5663 ], [ 88.0382, 25.5639 ], [ 88.0355, 25.5604 ], [ 88.0334, 25.5615 ], [ 88.0296, 25.5595 ], [ 88.0304, 25.5575 ], [ 88.027, 25.5533 ], [ 88.0379, 25.5462 ], [ 88.0357, 25.5367 ], [ 88.0391, 25.5332 ], [ 88.0425, 25.5321 ], [ 88.0461, 25.5343 ], [ 88.0507, 25.5305 ], [ 88.0581, 25.5287 ], [ 88.0575, 25.5257 ], [ 88.0689, 25.513 ], [ 88.0639, 25.5062 ], [ 88.0729, 25.5039 ], [ 88.0698, 25.5019 ], [ 88.0681, 25.4968 ], [ 88.0704, 25.4805 ], [ 88.0659, 25.4812 ], [ 88.0617, 25.4856 ], [ 88.0558, 25.4839 ], [ 88.053, 25.4866 ], [ 88.0495, 25.4862 ], [ 88.0493, 25.4827 ], [ 88.0463, 25.4826 ], [ 88.0421, 25.4854 ], [ 88.0366, 25.4865 ], [ 88.0386, 25.4916 ], [ 88.0345, 25.4927 ], [ 88.0312, 25.486 ], [ 88.0275, 25.4861 ], [ 88.0287, 25.489 ], [ 88.0157, 25.5005 ], [ 88.0099, 25.501 ], [ 88.0079, 25.5028 ], [ 88.0117, 25.5076 ], [ 88.0075, 25.5104 ], [ 88.0038, 25.5048 ], [ 88.0042, 25.494 ], [ 87.9928, 25.4979 ], [ 87.9866, 25.5026 ], [ 87.9806, 25.5159 ], [ 87.9878, 25.5207 ], [ 87.9876, 25.5239 ], [ 87.9723, 25.5232 ], [ 87.9641, 25.5331 ], [ 87.9556, 25.538 ], [ 87.9429, 25.5347 ], [ 87.926, 25.5362 ], [ 87.9196, 25.5308 ], [ 87.9161, 25.5319 ], [ 87.9144, 25.5309 ], [ 87.9137, 25.5238 ], [ 87.9082, 25.5241 ], [ 87.903, 25.5191 ], [ 87.9063, 25.5137 ], [ 87.9027, 25.5112 ], [ 87.9048, 25.5073 ], [ 87.9005, 25.5072 ], [ 87.899, 25.5043 ], [ 87.8959, 25.5047 ], [ 87.895, 25.5099 ], [ 87.8882, 25.5128 ], [ 87.8853, 25.5171 ], [ 87.8792, 25.516 ], [ 87.8814, 25.5056 ], [ 87.8699, 25.503 ], [ 87.8687, 25.4972 ], [ 87.8635, 25.4934 ], [ 87.8609, 25.4861 ], [ 87.8605, 25.4778 ], [ 87.8639, 25.4703 ], [ 87.8635, 25.4654 ], [ 87.8507, 25.4683 ], [ 87.8496, 25.465 ], [ 87.8338, 25.4646 ], [ 87.8338, 25.4588 ], [ 87.8256, 25.4575 ], [ 87.8273, 25.4516 ], [ 87.825, 25.4494 ], [ 87.8258, 25.4453 ], [ 87.8217, 25.443 ], [ 87.8192, 25.4375 ], [ 87.8086, 25.4342 ], [ 87.7983, 25.4419 ], [ 87.7933, 25.4422 ], [ 87.7926, 25.4456 ], [ 87.7865, 25.4487 ], [ 87.7813, 25.4447 ], [ 87.7765, 25.429 ], [ 87.7701, 25.4288 ], [ 87.7659, 25.4243 ], [ 87.7712, 25.4185 ], [ 87.7724, 25.4149 ], [ 87.7713, 25.4116 ], [ 87.768, 25.4088 ], [ 87.7641, 25.409 ], [ 87.7621, 25.4121 ], [ 87.7598, 25.4101 ], [ 87.7591, 25.405 ], [ 87.7664, 25.4035 ], [ 87.7631, 25.3956 ], [ 87.7626, 25.389 ], [ 87.7657, 25.378 ], [ 87.7767, 25.3708 ], [ 87.7888, 25.3722 ], [ 87.7874, 25.3549 ], [ 87.7849, 25.3446 ], [ 87.7816, 25.3384 ], [ 87.784, 25.3324 ], [ 87.7914, 25.3223 ], [ 87.8016, 25.3234 ], [ 87.8111, 25.3192 ], [ 87.8204, 25.3128 ], [ 87.8311, 25.3022 ], [ 87.8404, 25.2984 ], [ 87.8504, 25.2974 ], [ 87.8514, 25.2925 ], [ 87.8533, 25.2894 ], [ 87.855, 25.2895 ], [ 87.8565, 25.2778 ], [ 87.8543, 25.2679 ], [ 87.8514, 25.2691 ], [ 87.85, 25.2673 ], [ 87.851, 25.258 ], [ 87.8493, 25.2534 ], [ 87.8456, 25.2523 ], [ 87.8416, 25.2536 ], [ 87.8355, 25.2498 ], [ 87.8302, 25.2397 ], [ 87.8228, 25.2343 ], [ 87.8338, 25.2134 ], [ 87.8366, 25.1993 ], [ 87.8212, 25.2081 ], [ 87.81, 25.2117 ], [ 87.8013, 25.2182 ], [ 87.7876, 25.2205 ], [ 87.7875, 25.2286 ], [ 87.7833, 25.2462 ], [ 87.7691, 25.2467 ], [ 87.7628, 25.2493 ], [ 87.7211, 25.2534 ], [ 87.7078, 25.2564 ], [ 87.708, 25.2714 ], [ 87.701, 25.2778 ], [ 87.6913, 25.2814 ], [ 87.6891, 25.2849 ], [ 87.6903, 25.2912 ], [ 87.6948, 25.2954 ], [ 87.6914, 25.2986 ], [ 87.6935, 25.3031 ], [ 87.6882, 25.3048 ], [ 87.6806, 25.3043 ], [ 87.6809, 25.3077 ], [ 87.6841, 25.3081 ], [ 87.6842, 25.3101 ], [ 87.6588, 25.3097 ], [ 87.6518, 25.3072 ], [ 87.6318, 25.3119 ], [ 87.626, 25.3186 ], [ 87.6262, 25.3157 ], [ 87.6227, 25.3108 ], [ 87.6136, 25.3155 ], [ 87.6069, 25.3114 ], [ 87.5999, 25.3147 ], [ 87.5893, 25.3219 ], [ 87.5893, 25.3238 ], [ 87.5812, 25.328 ], [ 87.5805, 25.3323 ], [ 87.5877, 25.3405 ], [ 87.5801, 25.3484 ], [ 87.5795, 25.3439 ], [ 87.5714, 25.3405 ], [ 87.5671, 25.3339 ], [ 87.5474, 25.3309 ] ] ] ] } }
]
}
